ods_code,organisation_name,commission_ods_code,address_1,address_2,address_3,city,region,postcode
TAD,BRADFORD DISTRICT CARE NHS FOUNDATION TRUST,Y63,NEW MILL,VICTORIA ROAD,SALTAIRE,SHIPLEY,WEST YORKSHIRE,BD18 3LD
TAD01,MOOR LANE CENTRE,Y63,MOOR LANE,,BURLEY IN WHARFEDALE,ILKLEY,WEST YORKSHIRE,LS29 7AJ
TAD02,AIREDALE CHILD & FAMILY SERVICE,Y63,HILLBROOK,MAYFIELD ROAD,,KEIGHLEY,WEST YORKSHIRE,BD20 6LD
TAD03,CRAVEN CMHT,Y63,SKIPTON GENERAL HOSPITAL,KEIGHLEY ROAD,,SKIPTON,NORTH YORKSHIRE,BD23 2RJ
TAD04,DRUG & ALCOHOL TEAM,Y63,25-27 HENRY STREET,,,KEIGHLEY,WEST YORKSHIRE,BD21 3DR
TAD05,INGROW CENTRE,Y63,KILMAY HOUSE,200 SOUTH STREET,,KEIGHLEY,WEST YORKSHIRE,BD21 1BB
TAD09,GREYFRIARS WALK,Y63,20 GREYFRIARS WALK,,,BRADFORD,WEST YORKSHIRE,BD7 4BD
TAD10,ABELIA MOUNT,Y63,6-12 ABELIA MOUNT,,,BRADFORD,WEST YORKSHIRE,BD7 2TG
TAD12,COOPER LANE OFFICES,Y63,84 COOPER LANE,,,BRADFORD,WEST YORKSHIRE,BD6 3NJ
TAD14,LAND AT ASHFIELD HOUSE,Y63,THORNTON ROAD,,THORNTON,BRADFORD,WEST YORKSHIRE,BD13 3LN
TAD15,DAISY BANK,Y63,109 DUCKWORTH LANE,,DAISY HILL,BRADFORD,WEST YORKSHIRE,BD9 6RL
TAD16,AIREDALE CENTRE FOR MENTAL HEALTH,Y63,SKIPTON ROAD,STEETON,,KEIGHLEY,WEST YORKSHIRE,BD20 6TD
TAD17,LYNFIELD MOUNT HOSPITAL,Y63,HEIGHTS LANE,,,BRADFORD,WEST YORKSHIRE,BD9 6DP
TAD18,ODSAL HEALTH CENTRE/ THE ELMS,Y63,55 ODSAL ROAD,,,BRADFORD,WEST YORKSHIRE,BD6 1PR
TAD19,POLLITS HOUSE,Y63,POLLITS FARM,COOPER LANE,,BRADFORD,WEST YORKSHIRE,BD6 3NJ
TAD21,BRYAN-SUTHERLAND HOUSE,Y63,COOPER LANE,,,BRADFORD,WEST YORKSHIRE,BD6 3NL
TAD22,SOMERSET HOUSE,Y63,MANOR LANE,,,SHIPLEY,WEST YORKSHIRE,BD18 3BP
TAD23,STONEY RIDGE HOSPITAL,Y63,STONEY RIDGE ROAD,,,BINGLEY,WEST YORKSHIRE,BD16 1UL
TAD25,WADDILOVES,Y63,44 QUEENS ROAD,,,BRADFORD,WEST YORKSHIRE,BD8 7BT
TAD27,PARK VIEW,Y63,SPRING GARDENS LANE,,,KEIGHLEY,WEST YORKSHIRE,BD20 6LB
TAD28,SKIPTON ROAD,Y63,147 SKIPTON ROAD,,,KEIGHLEY,WEST YORKSHIRE,BD21 3BG
TAD29,WALKER HOUSE (3RD FLOOR),Y63,19-25 SUNBRIDGE ROAD,,,BRADFORD,WEST YORKSHIRE,BD1 2AY
TAD30,OWLET ROAD,Y63,21 OWLET ROAD,,,SHIPLEY,WEST YORKSHIRE,BD18 2LU
TAD31,THE GROVE (COPWOOD),Y63,15 COPGROVE ROAD,,,BRADFORD,WEST YORKSHIRE,BD4 0DJ
TAD32,FUSION,Y63,WHITEOAK CENTRE,2 FOSTON CLOSE,,BRADFORD,WEST YORKSHIRE,BD2 3QF
TAD36,MELVILLE HOUSE,Y63,PRESTON STREET,,,BRADFORD,WEST YORKSHIRE,BD7 1JP
TAD37,STRAWBERRY STREET A,Y63,STRAWBERRY STREET,,,KEIGHLEY,WEST YORKSHIRE,BD21 3BA
TAD38,ACRES HOUSE,Y63,BERRY LANE,,,KEIGHLEY,WEST YORKSHIRE,BD21 1DN
TAD39,ACRES HOUSE (TEAM MEET),Y63,BERRY LANE,,,KEIGHLEY,WEST YORKSHIRE,BD21 1DN
TAD40,BINGLEY VA COMMUNITY CENTRE,Y63,CARDIGAN HOUSE,FERNCLIFFE ROAD,,BINGLEY,WEST YORKSHIRE,BD16 2TA
TAD41,BRIDGE HOUSE,Y63,BAILEY HILLS ROAD,,,BINGLEY,WEST YORKSHIRE,BD16 2RJ
TAD44,FISHER MEDICAL CENTRE (PSYCHOLOGY),Y63,MILLFIELDS,COACH STREET,,SKIPTON,NORTH YORKSHIRE,BD23 1EU
TAD45,FISHER MEDICAL CENTRE (DR FISK),Y63,MILLFIELDS,COACH STREET,,SKIPTON,NORTH YORKSHIRE,BD23 1EU
TAD46,HOLMEWOOD,Y63,67 FELL LANE,,,KEIGHLEY,WEST YORKSHIRE,BD22 6AB
TAD54,THE AIREDALE CENTRE FOR MENTAL HEALTH,Y63,SKIPTON ROAD,STEETON WITH EASTBURN,,KEIGHLEY,WEST YORKSHIRE,BD20 6TA
TAD55,1/3 LEGRAMS TERRACE,Y63,FIELDHEAD BUSINESS CENTRE,,,BRADFORD,WEST YORKSHIRE,BD7 1LN
TAD57,48 ASH GROVE,Y63,GREAT HORTON ROAD,,,BRADFORD,WEST YORKSHIRE,BD7 1BL
TAD59,CEMETERY ROAD,Y63,"UNIT 1, FOUR LANE BUSINESS PARK",CEMETERY ROAD,,BRADFORD,WEST YORKSHIRE,BD8 9RY
TAD61,UNIT E3 & E4 ENTERPRISE WAY,Y63,BRADFORD ROAD,,,BRADFORD,WEST YORKSHIRE,BD10 8EW
TAD62,FIELDHEAD HOUSE,Y63,UNITS 2/8,FIELDHEAD BUSINESS CENTRE,,BRADFORD,WEST YORKSHIRE,BD7 1LN
TAD63,HORTON PARK,Y63,99 HORTON PARK AVENUE,,,BRADFORD,WEST YORKSHIRE,BD7 3EG
TAD65,LISTONSHIELS,Y63,BIERLEY LANE,,,BRADFORD,WEST YORKSHIRE,BD4 6DN
TAD66,UNIT 2D REVIVAL INDUSTRIAL ESTATE,Y63,WINDSOR STREET,,,BRADFORD,WEST YORKSHIRE,BD4 7AQ
TAD67,SOUTH AND WEST CMHT FOR OLDER PEOPLE,Y63,HARBOURNE,BREARCLIFFE DRIVE,,BRADFORD,WEST YORKSHIRE,BD6 2LE
TAD68,BRADFORD CITY CMHT FOR OLDER PEOPLE,Y63,WOODWARD COURT,KIRKLEES ROAD,ALLERTON,BRADFORD,WEST YORKSHIRE,BD15 7YT
TAD69,NORTH BRADFORD CMHT FOR OLDER PEOPLE,Y63,THACKLEY GRANGE NH,TOWN LANE,,BRADFORD,WEST YORKSHIRE,BD10 8LW
TAD70,BINGLEY CMHT FOR OLDER PEOPLE,Y63,LITTLELANDS COURT,LITTLELANDS,,BINGLEY,WEST YORKSHIRE,BD16 1RS
TAD71,CRAVEN AREA CMHT FOR OLDER PEOPLE,Y63,CASTLEBERGH HOSPITAL,GIGGLESWICK,,SETTLE,NORTH YORKSHIRE,BD24 0BN
TAD72,DAISY HILL HOUSE,Y63,LYNFIELD MOUNT HOSPITAL,HEIGHTS LANE,,BRADFORD,WEST YORKSHIRE,BD9 6DP
TAD73,KEIGHLEY CMHT FOR OLDER PEOPLE,Y63,FLORENCE NIGHTINGALE HOUSE,AIREDALE GENERAL HOSPITAL,"SKIPTON ROAD, STEETON",KEIGHLEY,WEST YORKSHIRE,BD20 6TD
TAD74,SPRINGS MEDICAL CENTRE (OLD AGE PSYCHIATRY CLINIC),Y63,SPRINGS LANE,,,ILKLEY,WEST YORKSHIRE,LS29 8TH
TAD75,SHIPLEY HOSPITAL (OLD AGE PSYCHIATRY CLINIC),Y63,(OLD AGE PSYCHIATRY CLINIC),98 KIRKGATE,,SHIPLEY,WEST YORKSHIRE,BD18 3LT
TAD76,BINGLEY HEALTH CENTRE (OLD AGE PSYCHIATRY CLINIC),Y63,OL AGE PSYCHIATRY CLINIC,MYRTLE PLACE,,BINGLEY,WEST YORKSHIRE,BD16 2TL
TAD77,LING HOUSE MEDICAL CENTRE (OLD AGE PSYCHIATRY CLINIC),Y63,49 SCOTT STREET,,,KEIGHLEY,WEST YORKSHIRE,BD21 2JH
TAD78,DR GUPTA'S SURGERY (OLD AGE PSYCHIATRY CLINIC),Y63,3 AIREDALE ROAD,,,BRADFORD,WEST YORKSHIRE,BD3 0LR
TAD79,"UNITS 1, 3, 4, AND 6 (MERIDIAN HOUSE)",Y63,MERIDIAN HOUSE,BRADFORD ROAD,,KEIGHLEY,WEST YORKSHIRE,BD21 4AJ
TAD80,7 LEGRAMS TERRACE,Y63,FIELDHEAD BUSINESS CENTRE,,,BRADFORD,WEST YORKSHIRE,BD7 1LN
TAD81,LOW MOOR RESOURCE CENTRE,Y63,COMMON ROAD,LOW MOOR,,BRADFORD,WEST YORKSHIRE,BD12 0SD
TAD82,HOLYBROOK CENTRE,Y63,REDCAR ROAD,,,BRADFORD,WEST YORKSHIRE,BD10 0DP
TAD83,MERCURY QUAYS UNIT 9B,Y63,ASHLEY LANE,,,SHIPLEY,WEST YORKSHIRE,BD17 7DB
TAD84,MERCURY QUAYS UNIT 9F,Y63,ASHLEY LANE,,,SHIPLEY,WEST YORKSHIRE,BD17 7DB
TAD85,GENESIS 5,Y63,INNOVATION WAY,HESLINGTON,,YORK,NORTH YORKSHIRE,YO10 5DQ
TAD86,REDHILLS,Y63,VOLUNTARY ACTION CUMBRIA,REDHILLS LANE,REDHILLS,PENRITH,CUMBRIA,CA11 0DT
TAD88,ABBEYFIELD,Y63,GROVE HOUSE,12 RIDDINGS ROAD,,ILKLEY,WEST YORKSHIRE,LS29 9BF
TAD89,CENTRAL LIBRARY,Y63,SIGN POSTING SERVICE 1ST FLOOR,PRINCES WAY,,BRADFORD,WEST YORKSHIRE,BD1 1NN
TAD90,IAN CLOUGH HALL,Y63,HALL CLIFFE,BAILDON,,SHIPLEY,WEST YORKSHIRE,BD17 6ND
TAD91,SHIPLEY RESOURCE CENTRE,Y63,123 OTLEY ROAD,,,SHIPLEY,WEST YORKSHIRE,BD18 2LZ
TAD92,PARK ROAD HEALTH CENTRE,Y63,PARK ROAD,,,BRADFORD,WEST YORKSHIRE,BD5 0SG
TAD93,KEIGHLEY RESOURCE CENTRE,Y63,OXFORD STREET,,,KEIGHLEY,WEST YORKSHIRE,BD21 1RA
TAD94,REEVY ROAD,Y63,60 REEVY ROAD WEST,,,BRADFORD,WEST YORKSHIRE,BD6 3LH
TAD95,RIX HOUSE,Y63,24 ARNCLIFFE ROAD,,,KEIGHLEY,WEST YORKSHIRE,BD22 6AR
TAD96,WEAVER COURT,Y63,MOORFIELD PLACE,,,BRADFORD,WEST YORKSHIRE,BD10 9TL
TAD97,OLD PARK ROAD,Y63,51 OLD PARK ROAD,,,BRADFORD,WEST YORKSHIRE,BD10 9BG
TAD98,NORTHFIELD ROAD,Y63,2 NORTHFIELD ROAAD,,,BRADFORD,WEST YORKSHIRE,BD6 1RA
TAD99,11 MOORCROFT DRIVE,Y63,EAST BIERLEY,,,BRADFORD,WEST YORKSHIRE,BD4 6NJ
TADA1,CROSS BANKS,Y63,1 CROSS BANKS,,,SHIPLEY,WEST YORKSHIRE,BD18 3RW
TADA3,AIREDALE FRESH START,Y63,23 TEMPLE STREET,,,KEIGHLEY,WEST YORKSHIRE,BD21 2AD
TADA4,WESTBOURNE GREEN (SCHOOL NURSING),Y63,WESTBOURNE GREEN MEDICAL CENTRE,50 HEATON ROAD,,BRADFORD,WEST YORKSHIRE,BD8 8RA
TADA5,THE RIDGE (SCHOOL NURSING),Y63,THE RIDGE MEDICAL CENTRE,COUSEN ROAD,,BRADFORD,WEST YORKSHIRE,BD7 3JX
TADA6,KINGSWAY (SCHOOL NURSING),Y63,CANALSIDE HEALTH CARE CENTRE,2 KINGSWAY,,BINGLEY,WEST YORKSHIRE,BD16 4RP
TADA7,SHIPLEY HEALTH CENTRE (SCHOOL NURSING),Y63,ALEXANDRA ROAD,,,SHIPLEY,WEST YORKSHIRE,BD18 3EG
TADA8,HAWORTH RD HEALTH CENTRE (SCHOOL NURSING),Y63,HAWORTH ROAD,,,BRADFORD,WEST YORKSHIRE,BD9 6LL
TADA9,BARKEREND HEALTH CENTRE (SCHOOL NURSING),Y63,BARKEREND ROAD,,,BRADFORD,WEST YORKSHIRE,BD3 8QH
TADC1,KEIGHLEY HEALTH CENTRE (SCHOOL NURSING),Y63,OAKWORTH ROAD,,,KEIGHLEY,WEST YORKSHIRE,BD21 1SA
TADC2,HOLMEWOOD HEALTH CENTRE (SCHOOL NURSING),Y63,HOLME WOOD ROAD,,,BRADFORD,WEST YORKSHIRE,BD4 9EJ
TADC3,BRADFORD SOUTH & WEST CMHT,Y63,BRADFORD DISTRICT CARE TRUST,10-16 ST. MARTINS AVENUE,FIELDHEAD BUSINESS CENTRE,BRADFORD,WEST YORKSHIRE,BD7 1LG
TADC4,CULTURE FUSION,Y63,EARLY INTERVENTION SERVICE,125 THORNTON ROAD,,BRADFORD,WEST YORKSHIRE,BD1 2EP
TADC5,COMM MENTAL HEALTH (NTH3),Y63,BRADFORD DISTRICT CARE TRUST,SOMERSET HOUSE,,SHIPLEY,WEST YORKSHIRE,BD18 3BP
TADC6,SAFE HAVEN,Y63,CITY SUBSTANCE MISUSE SERVICE,FOUNTAIN HALL,FOUNTAIN STREET,BRADFORD,WEST YORKSHIRE,BD1 3RA
TADC7,CRAVEN IAPT MENTAL HEALTH,Y63,DYNELEY HOUSE SURGERY,NEWMARKET STREET,,SKIPTON,NORTH YORKSHIRE,BD23 2HZ
TADC8,AWC COMPLEX CARE TEAM,Y63,DIGITAL CARE HUB,AGH WARD 15,SKIPTON ROAD,KEIGHLEY,WEST YORKSHIRE,BD20 6TD
TADHQ,BRADFORD DISTRICT CARE TRUST HQ,Y63,NEW MILL,VICTORIA ROAD,,SHIPLEY,WEST YORKSHIRE,BD18 3LD
TAF,CAMDEN AND ISLINGTON NHS FOUNDATION TRUST,Y56,ST PANCRAS HOSPITAL,4 ST PANCRAS WAY,,LONDON,,NW1 0PE
TAF01,ST PANCRAS HOSPITAL,Y56,4 ST. PANCRAS WAY,,,LONDON,GREATER LONDON,NW1 0PE
TAF02,ST LUKES WOODSIDE HOSPITAL,Y56,WOODSIDE AVENUE,,,LONDON,GREATER LONDON,N10 3HU
TAF04,DRAYTON PARK WOMENS SERVICE,Y56,32 DRAYTON PARK,,,LONDON,GREATER LONDON,N5 1PB
TAF06,ROYAL FREE HOSPITAL,Y56,POND STREET,,,LONDON,GREATER LONDON,NW3 2QG
TAF08,CRISIS TEAM (NORTH CAMDEN),Y56,3-5 DALEHAM GARDENS,,,LONDON,GREATER LONDON,NW3 5BY
TAF10,ABERDEEN PARK (RESIDENTIAL SERVICES),Y56,19 ABERDEEN PARK,,,LONDON,GREATER LONDON,N5 2AR
TAF11,ISATS,Y56,309 GRAY'S INN ROAD,,,LONDON,GREATER LONDON,WC1X 8QS
TAF12,R&R TEAM (NORTH ISLINGTON),Y56,1 LOWTHER ROAD,,,LONDON,GREATER LONDON,N7 8US
TAF15,AOT (C&I),Y56,4 GREENLAND ROAD,,,LONDON,GREATER LONDON,NW1 0AS
TAF16,BELSIZE AVENUE,Y56,61 BELSIZE AVENUE,,,LONDON,GREATER LONDON,NW3 4BN
TAF17,BELSIZE SQUARE,Y56,21 BELSIZE SQUARE,,,LONDON,GREATER LONDON,NW3 4HT
TAF21,CAMDEN MEWS DAY HOSPITAL,Y56,1-5 CAMDEN MEWS,,,LONDON,GREATER LONDON,NW1 9DB
TAF22,R&R TEAM (SOUTH ISLINGTON),Y56,SOUTHWOOD SMITH CENTRE,SOUTHWOOD SMITH STREET,ISLINGTON,LONDON,GREATER LONDON,N1 0YL
TAF25,CLERKENWELL PROJECT,Y56,7 CUMBERLAND GARDENS,,,LONDON,GREATER LONDON,WC1X 9AG
TAF32,DRAYTON PARK COMMUNITY CARE CENTRE,Y56,LONDON BOROUGH OF ISLINGTON,52D DRAYTON PARK,,LONDON,GREATER LONDON,N5 1NS
TAF33,ELTHORNE MENTAL HEALTH & SOCIAL CARE CENTRE,Y56,17-23 BEAUMONT RISE,,,LONDON,GREATER LONDON,N19 3AA
TAF35,FOCUS TEAM,Y56,264 PENTONVILLE ROAD,,,LONDON,GREATER LONDON,N1 9JY
TAF36,FORDWYCH ROAD DAY HOSPITAL,Y56,85-87 FORDWYCH ROAD,,,LONDON,GREATER LONDON,NW2 3TL
TAF37,HANLEY GARDENS (RESIDENTIAL SERVICES),Y56,HANLEY ROAD,,,LONDON,GREATER LONDON,N4 3DY
TAF38,HENLEY ROAD DAY CENTRE,Y56,75 HANLEY ROAD,,,LONDON,GREATER LONDON,N4 3DQ
TAF39,HIGHGATE ROAD DAY CENTRE,Y56,19-37 HIGHGATE ROAD,,,LONDON,GREATER LONDON,NW5 1JY
TAF41,HIGHVIEW & CORNWALLIS COMMUNITY SUPPORT PROJECTS,Y56,30 SUNNYSIDE ROAD,,,LONDON,GREATER LONDON,N19 3TA
TAF42,R&R TEAM (NORTH CAMDEN),Y56,17 LYNDHURST GARDENS,,,LONDON,GREATER LONDON,NW3 5NU
TAF44,HUNTER STREET HEALTH CENTRE,Y56,8 HUNTER STREET,,,LONDON,GREATER LONDON,WC1N 1BN
TAF46,ISLEDON ROAD MENTAL HEALTH RESOURCE CENTRE,Y56,76-80 ISLEDON ROAD,,,LONDON,GREATER LONDON,N7 7LB
TAF47,ISLINGTON LEARNING DIFFICULTIES PARTNERSHIP,Y56,52D DRAYTON PARK,,,LONDON,GREATER LONDON,N5 1NS
TAF49,LAMBO DAY CENTRE,Y56,48 DESPARD ROAD,,,LONDON,GREATER LONDON,N19 5NW
TAF50,CAMDEN LD SERVICE,Y56,BEDFORD HOUSE,125-133 CAMDEN HIGH STREET,,LONDON,GREATER LONDON,NW1 7JR
TAF53,NETHERWOOD CENTRE,Y56,5 NETHERWOOD STREET,,,LONDON,GREATER LONDON,NW6 2QU
TAF54,NORTH CAMDEN DRUG SERVICES (RESPONSE),Y56,457 FINCHLEY ROAD,,,LONDON,GREATER LONDON,NW3 6HN
TAF56,IDASS,Y56,592 HOLLOWAY ROAD,,,LONDON,GREATER LONDON,N7 6LB
TAF59,QUEEN MARY'S HOUSE,Y56,23 EAST HEATH ROAD,,,LONDON,GREATER LONDON,NW3 1DU
TAF60,PINE STREET DAY CENTRE,Y56,13-15 PINE STREET,,,LONDON,GREATER LONDON,EC1R 0JG
TAF61,RAGLAN DAY CENTRE,Y56,1 RAGLAN STREET,,,LONDON,GREATER LONDON,NW5 3DB
TAF62,SOUTH CAMDEN DRUG SERVICES,Y56,ST. JAMES' HOUSE,108 HAMPSTEAD ROAD,,LONDON,GREATER LONDON,NW1 2LS
TAF65,STACEY STREET NURSING HOME,Y56,1 STACEY STREET,,,LONDON,GREATER LONDON,N7 7JQ
TAF66,TOTTENHAM MEWS RESOURCE CENTRE,Y56,1 TOTTENHAM MEWS,,,LONDON,GREATER LONDON,W1T 4AA
TAF67,TRAUMATIC STRESS CLINIC,Y56,73 CHARLOTTE STREET,,,LONDON,GREATER LONDON,W1T 4PL
TAF70,EARLY INTERVENTION SERVICE,Y56,"BEDFORD HOUSE, 3RD FLOOR",125-133 CAMDEN HIGH STREET,,LONDON,GREATER LONDON,NW1 7JR
TAF72,HIGHGATE ACUTE MENTAL HEALTH CENTRE,Y56,DARTMOUTH PARK HILL,,,LONDON,GREATER LONDON,N19 5JG
TAF73,PSYCHOLOGY A14 ARCHWAY WING,Y56,WHITTINGTON HOSPITAL,HIGHGATE WING,DARTMOUTH PARK HILL,LONDON,GREATER LONDON,N19 5JG
TAF74,CAMDEN ALCOHOL SERVICE,Y56,7-8 EARLY MEWS,ARLINGTON ROAD,,LONDON,GREATER LONDON,NW1 7HG
TAF75,CALEDONIAN ROAD (RESIDENTIAL SERVICES),Y56,471 CALEDONIAN ROAD,,,LONDON,GREATER LONDON,N7 9RN
TAF76,SHAFTESBURY ROAD (RESIDENTIAL SERVICES),Y56,41 SHAFTESBURY ROAD,,,LONDON,GREATER LONDON,N19 4QW
TAF77,ROYAL FREE GROVE CENTRE,Y56,81 FLEET ROAD,,,LONDON,GREATER LONDON,NW3 2QZ
TAF78,CARE TRUST MENTAL HEALTH SERVICES,Y56,"UCLH, UCH TOWER",15TH FLOOR,235 EUSTON ROAD,LONDON,GREATER LONDON,NW1 2BU
TAF79,KINGS CROSS ROAD,Y56,211 KING'S CROSS ROAD,,,LONDON,GREATER LONDON,WC1X 9DN
TAF80,HILL HOUSE,Y56,HIGHGATE HILL,,,LONDON,GREATER LONDON,N19 5NA
TAF81,SAMH CMHT (ISLINGTON),Y56,3RD FLOOR COLLINGWOOD BUSINESS CTR,MERCERS ROAD,,LONDON,GREATER LONDON,N19 4PJ
TAF82,COLLINGWOOD BUSINESS CENTRE,Y56,MERCERS ROAD,,,LONDON,GREATER LONDON,N19 4PU
TAF83,GREENLAND ROAD SERVICES,Y56,4 GREENLAND ROAD,,,LONDON,GREATER LONDON,NW1 0AS
TAF84,CRISIS TEAM (SOUTH CAMDEN),Y56,THE BLOOMSBURY BUILDING,ST. PANCRAS HOSPITAL,4 ST. PANCRAS WAY,LONDON,GREATER LONDON,NW1 0PE
TAF86,NORTH ISLINGTON CRISIS TEAM,Y56,DARTMOUTH PARK HILL,,,LONDON,GREATER LONDON,N19 5NX
TAF87,ISLINGTON IAPT,Y56,211 KING'S CROSS ROAD,,,LONDON,GREATER LONDON,WC1X 9DN
TAF88,CAMDEN IAPT,Y56,211 KING'S CROSS ROAD,,,LONDON,GREATER LONDON,WC1X 9DN
TAF90,KINGSTON DRUG & ALCOHOL SERVICE,Y56,SURBITON HEALTH CENTRE,EWELL ROAD,,SURBITON,SURREY,KT6 6EZ
TAF91,TILE HOUSE SUPPORTED HOUSING PROJECT,Y56,TILE HOUSE,1 BEACONSFIELD STREET,,LONDON,GREATER LONDON,N1C 4AD
TAF92,SAHM SERVICES,Y56,UNITS 8-10,BLENHEIM COURT,62 BREWERY ROAD,LONDON,GREATER LONDON,N7 9NY
TAF93,PECKWATER CENTRE,Y56,6 PECKWATER STREET,,,LONDON,,NW5 2TX
TAF94,KINGSTON PRIMARY CARE MENTAL HEALTH SERVICE,Y56,22 HOLLYFIELD ROAD,,,SURBITON,SURREY,KT5 9AL
TAF95,GLOBAL SWITCH HOUSE,Y56,3 NUTMEG LANE,,,LONDON,,E14 2AX
TAF96,DATA CENTRE 1,Y56,260-262 GOSWELL ROAD,,,LONDON,,EC1V 7EB
TAH,SHEFFIELD HEALTH & SOCIAL CARE NHS FOUNDATION TRUST,Y63,FULWOOD HOUSE,OLD FULWOOD ROAD,,SHEFFIELD,SOUTH YORKSHIRE,S10 3TH
TAH01,NORBURY RESOURCE CENTRE,Y63,2 CRABTREE ROAD,,,SHEFFIELD,SOUTH YORKSHIRE,S5 7BB
TAH02,WESTFIELD HEALTH CENTRE,Y63,WESTFIELD NORTHWAY,WESTFIELD,,SHEFFIELD,SOUTH YORKSHIRE,S20 8NZ
TAH03,WILKINSON STREET,Y63,10 WILKINSON STREET,,,SHEFFIELD,SOUTH YORKSHIRE,S10 2GA
TAH11,ANGLETON AVENUE,Y63,29-31 ANGELTON AVENUE,,,SHEFFIELD,SOUTH YORKSHIRE,S2 1NB
TAH12,ARBOURTHORNE,Y63,458A EAST BANK ROAD,,,SHEFFIELD,SOUTH YORKSHIRE,S2 2AD
TAH13,BEECH HILL,Y63,NORFOLK PARK ROAD,,,SHEFFIELD,SOUTH YORKSHIRE,S2 3QE
TAH14,BEIGHTON HEALTH CENTRE,Y63,QUEENS ROAD,BEIGHTON,,SHEFFIELD,SOUTH YORKSHIRE,S20 1BJ
TAH15,BELGRAVE MEDICAL CENTRE,Y63,22 ASLINE ROAD,,,SHEFFIELD,SOUTH YORKSHIRE,S2 4UJ
TAH16,67 BIRCH AVENUE,Y63,CHAPELTOWN,,,SHEFFIELD,SOUTH YORKSHIRE,S35 1RQ
TAH17,BOLE HILL RESIDENTIAL HOME,Y63,2 EASTFIELD ROAD,,,SHEFFIELD,SOUTH YORKSHIRE,S10 1QL
TAH18,BRAESIDE,Y63,91 UPWELL STREET,,,SHEFFIELD,SOUTH YORKSHIRE,S4 8AN
TAH19,BRINCLIFFE HOUSE,Y63,90 OSBORNE ROAD,,,SHEFFIELD,SOUTH YORKSHIRE,S11 9BD
TAH20,BUCKWOOD VIEW NURSING HOME,Y63,6A BUCK WOOD VIEW,,,SHEFFIELD,SOUTH YORKSHIRE,S14 1LX
TAH21,CENTENARY ANNEXE,Y63,147A UPPERTHORPE ROAD,,,SHEFFIELD,SOUTH YORKSHIRE,S6 3EB
TAH22,CENTENARY HOUSE,Y63,55 ALBERT TERRACE ROAD,,,SHEFFIELD,SOUTH YORKSHIRE,S6 3BR
TAH23,CENTRAL HEALTH CLINIC,Y63,MULBERRY STREET,,,SHEFFIELD,SOUTH YORKSHIRE,S1 2PJ
TAH24,CENTRE FOR HIV & SEXUAL HEALTH,Y63,22 COLLEGIATE CRESCENT,,,SHEFFIELD,SOUTH YORKSHIRE,S10 2BA
TAH25,CHARNOCK MEDICAL CENTRE,Y63,WHITE LANE,,,SHEFFIELD,SOUTH YORKSHIRE,S12 3GH
TAH26,CLINICAL NEUROPSYCHOLOGY SERVICE,Y63,12 CLAREMONT CRESCENT,,,SHEFFIELD,SOUTH YORKSHIRE,S10 2TA
TAH27,DENTAL CLINC - NORFOLK PARK SCHOOL,Y63,PARK GRANGE ROAD,,,SHEFFIELD,SOUTH YORKSHIRE,S2 3QF
TAH28,DENTAL CLINIC - OAKES PARK SCHOOL,Y63,HEMSWORTH ROAD,,,SHEFFIELD,SOUTH YORKSHIRE,S8 8LN
TAH29,DEPT OF CLINICAL PSYCHOLOGY,Y63,UNIVERSITY OF SHEFFIELD,WESTERN BANK,,SHEFFIELD,SOUTH YORKSHIRE,S10 2TN
TAH30,DEPT OF PSYCHIATRY - BARNSLEY DGH,Y63,BARNSLEY DISTRICT GENERAL HOSP,POGMOOR ROAD,,BARNSLEY,SOUTH YORKSHIRE,S75 2EP
TAH31,DEPT OF PSYCHIATRY - BASSETLAW DGH,Y63,BASSETLAW DISTRICT GENERAL HOSPITAL,KILTON HILL,,WORKSOP,NOTTINGHAMSHIRE,S81 0BD
TAH32,DEPT OF PSYCHIATRY - CHESTER ROYAL HOSPITAL,Y63,CHESTERFIELD ROAD,CALOW,,CHESTERFIELD,DERBYSHIRE,S44 5BL
TAH33,DEPT OF PSYCHIATRY - DRI,Y63,DONCASTER ROYAL INFIRMARY,THORNE ROAD,,DONCASTER,SOUTH YORKSHIRE,DN2 5LT
TAH34,DEPT OF PSYCHIATRY - ROTHERAM DGH,Y63,ROTHERHAM DISTRICT GENERAL HOSPITAL,MOORGATE ROAD,,ROTHERHAM,SOUTH YORKSHIRE,S60 2UD
TAH35,DON VALLEY HOUSE,Y63,SAVILE STREET EAST,,,SHEFFIELD,SOUTH YORKSHIRE,S4 7UQ
TAH36,DRAGOON COURT,Y63,HILLSBOROUGH BARRACKS,PENISTONE ROAD,,SHEFFIELD,SOUTH YORKSHIRE,S6 2GZ
TAH37,DUKE MEDICAL CENTRE,Y63,28 TALBOT ROAD,,,SHEFFIELD,SOUTH YORKSHIRE,S2 2TD
TAH38,ECCLESFIELD CARE CENTRE,Y63,89 GREEN LANE,ECCLESFIELD,,SHEFFIELD,SOUTH YORKSHIRE,S35 9WY
TAH39,FIRST START NURSERY,Y63,441 FIRTH PARK ROAD,,,SHEFFIELD,SOUTH YORKSHIRE,S5 6QQ
TAH40,FIRTH PARK CLINIC,Y63,40 NORTH QUADRANT,,,SHEFFIELD,SOUTH YORKSHIRE,S5 6NU
TAH41,FLOCKTON HOUSE,Y63,18 UNION ROAD,,,SHEFFIELD,SOUTH YORKSHIRE,S11 9EF
TAH42,FOXWOOD RESOURCE CENTRE,Y63,1 RIDGEWAY ROAD,,,SHEFFIELD,SOUTH YORKSHIRE,S12 2TW
TAH43,GREENACRES,Y63,1 COTTAM ROAD,HIGH GREEN,,SHEFFIELD,SOUTH YORKSHIRE,S35 4GN
TAH44,GREENHILL HEALTH CENTRE,Y63,482 LUPTON ROAD,,,SHEFFIELD,SOUTH YORKSHIRE,S8 7NQ
TAH45,GUERNSEY HOUSE,Y63,84 GUERNSEY ROAD,,,SHEFFIELD,SOUTH YORKSHIRE,S2 4HG
TAH46,HACKENTHORPE MEDICAL CENTRE,Y63,15 MAIN STREET,,,SHEFFIELD,SOUTH YORKSHIRE,S12 4LA
TAH47,HANDSWORTH GRANGE MEDICAL CENTRE,Y63,432 HANDSWORTH ROAD,HANDSWORTH,,SHEFFIELD,SOUTH YORKSHIRE,S13 9BZ
TAH48,HAZELHURST RESOURCE CENTRE,Y63,1 DYCHE DRIVE,,,SHEFFIELD,SOUTH YORKSHIRE,S8 8DN
TAH49,HEELEY DENTAL CLINIC,Y63,GIFFORD ROAD,,,SHEFFIELD,SOUTH YORKSHIRE,S8 0ZS
TAH50,HIGH GREEN HEALTH CENTRE,Y63,THOMPSON HILL,,,SHEFFIELD,SOUTH YORKSHIRE,S35 4NF
TAH51,HOLLIES MEDICAL CENTRE,Y63,20 ST. ANDREWS ROAD,,,SHEFFIELD,SOUTH YORKSHIRE,S11 9AL
TAH52,HURLFIELD VIEW,Y63,203 GLEADLESS COMMON,,,SHEFFIELD,SOUTH YORKSHIRE,S12 2UU
TAH53,INCLUSION SUPPORT CENTRE,Y63,HALIFAX ROAD,,,SHEFFIELD,SOUTH YORKSHIRE,S6 1AA
TAH54,JORDANTHORPE HEALTH CENTRE,Y63,JORDANTHORPE CENTRE,,,SHEFFIELD,SOUTH YORKSHIRE,S8 8DX
TAH55,KERSAL MOUNT NURSING HOME,Y63,115 MANCHESTER ROAD,,,SHEFFIELD,SOUTH YORKSHIRE,S10 5DN
TAH56,KIRKHILL RESOURCE CENTRE,Y63,127 LOWEDGES ROAD,,,SHEFFIELD,SOUTH YORKSHIRE,S8 7LE
TAH57,LODGE MOOR MEDICAL CENTRE,Y63,68 ROCHESTER ROAD,,,SHEFFIELD,SOUTH YORKSHIRE,S10 4JQ
TAH58,MANOR CLINIC,Y63,18 RIDGEWAY ROAD,,,SHEFFIELD,SOUTH YORKSHIRE,S12 2ST
TAH59,MANOR HOUSE,Y63,260 ECCLESALL ROAD SOUTH,,,SHEFFIELD,SOUTH YORKSHIRE,S11 9PS
TAH60,MANOR PARK MEDICAL CENTRE,Y63,204 HARBOROUGH AVENUE,,,SHEFFIELD,SOUTH YORKSHIRE,S2 1QU
TAH61,MANSFIELD VIEW,Y63,11 MANSFIELD VIEW,,,SHEFFIELD,SOUTH YORKSHIRE,S12 2AW
TAH62,MELROSE ROAD,Y63,8 MELROSE ROAD,,,SHEFFIELD,SOUTH YORKSHIRE,S3 9DN
TAH63,MILLBROOK,Y63,100 BEIGHTON ROAD,WOODHOUSE,,SHEFFIELD,SOUTH YORKSHIRE,S13 7PS
TAH64,NETHERTHORPE HOUSE,Y63,101 NETHERTHORPE ROAD,,,SHEFFIELD,SOUTH YORKSHIRE,S3 7EZ
TAH65,NEWFIELD GREEN CLINIC,Y63,541 GLEADLESS ROAD,,,SHEFFIELD,SOUTH YORKSHIRE,S2 2BS
TAH66,NORFOLK PARK HEALTH CENTRE,Y63,TOWER DRIVE,,,SHEFFIELD,SOUTH YORKSHIRE,S2 3RE
TAH67,NORTHERN GENERAL HOSPITAL,Y63,HERRIES ROAD,,,SHEFFIELD,SOUTH YORKSHIRE,S5 7AU
TAH68,NORWOOD MEDICAL CENTRE,Y63,360 HERRIES ROAD,,,SHEFFIELD,SOUTH YORKSHIRE,S5 7HD
TAH69,OAKWOOD YPC,Y63,NORTHERN GENERAL HOSPITAL,HERRIES ROAD,,SHEFFIELD,SOUTH YORKSHIRE,S5 7AU
TAH70,ORGREAVE ROAD,Y63,9 ORGREAVE ROAD,,,SHEFFIELD,SOUTH YORKSHIRE,S13 9LQ
TAH71,PARK HEALTH CENTRE,Y63,190 DUKE STREET,,,SHEFFIELD,SOUTH YORKSHIRE,S2 5QQ
TAH72,PSYCHOLOGY SERVICES,Y63,23A CLIFTON LANE,,,ROTHERHAM,SOUTH YORKSHIRE,S65 2AA
TAH73,ROYAL HALLAMSHIRE HOSPITAL,Y63,GLOSSOP ROAD,,,SHEFFIELD,SOUTH YORKSHIRE,S10 2JF
TAH74,RYEGATE CENTRE,Y63,TAPTON CRESCENT ROAD,,,SHEFFIELD,SOUTH YORKSHIRE,S10 5DD
TAH75,SCOTT ROAD,Y63,71-73 SCOTT ROAD,,,SHEFFIELD,SOUTH YORKSHIRE,S4 7BG
TAH76,SEVENFIELDS RESOURCE CENTRE,Y63,239 BEN LANE,,,SHEFFIELD,SOUTH YORKSHIRE,S6 4SB
TAH77,SHARROW SURE START,Y63,110 SHARROW LANE,,,SHEFFIELD,SOUTH YORKSHIRE,S11 8AL
TAH78,SHIRLE HILL,Y63,CHERRY TREE ROAD,,,SHEFFIELD,SOUTH YORKSHIRE,S11 9AA
TAH79,ST JOSEPHS ROAD,Y63,63-65 ST JOSEPHS ROAD,,,SHEFFIELD,SOUTH YORKSHIRE,S13 9AU
TAH80,STANNINGTON HEALTH CENTRE,Y63,UPPER GATE ROAD,STANNINGTON,,SHEFFIELD,SOUTH YORKSHIRE,S6 6BX
TAH81,STEVEN CLOSE,Y63,CHAPELTOWN,,,SHEFFIELD,SOUTH YORKSHIRE,S35 1XW
TAH82,STOCKSBRIDGE MEDICAL CENTRE,Y63,JOHNSON STREET,STOCKSBRIDGE,,SHEFFIELD,SOUTH YORKSHIRE,S36 1BX
TAH83,TANNERY LODGE,Y63,520 STRADBROKE ROAD,,,SHEFFIELD,SOUTH YORKSHIRE,S13 7GD
TAH84,THE SURGERY,Y63,HIGHGATE,,,SHEFFIELD,SOUTH YORKSHIRE,S9 1WN
TAH85,THORNLEA,Y63,400 MIDDLEWOOD ROAD,,,SHEFFIELD,SOUTH YORKSHIRE,S6 1TQ
TAH86,TRAMWAYS MEDICAL CENTRE,Y63,54A HOLME LANE,,,SHEFFIELD,SOUTH YORKSHIRE,S6 4JQ
TAH87,UPPERTHORPE MEDICAL CENTRE,Y63,30 ADDY STREET,,,SHEFFIELD,SOUTH YORKSHIRE,S6 3FT
TAH88,WALKLEY MEDICAL CENTRE,Y63,23 GREENHOW STREET,,,SHEFFIELD,SOUTH YORKSHIRE,S6 3TN
TAH89,WATHWOOD HOSPITAL,Y63,GIPSY GREEN LANE,WATH-UPON-DEARNE,,ROTHERHAM,SOUTH YORKSHIRE,S63 7TQ
TAH90,WENSLEY STREET,Y63,142 WENSLEY STREET,,,SHEFFIELD,SOUTH YORKSHIRE,S4 8HN
TAH91,WEST COURT,Y63,HILLSBOROUGH BARRACKS,LANGSETT ROAD,,SHEFFIELD,SOUTH YORKSHIRE,S6 2LR
TAH92,MARGETSON SURGERY,Y63,1 REMINGTON AVENUE,,,SHEFFIELD,SOUTH YORKSHIRE,S5 9PA
TAH93,ACCELERATED DISCHARGE OFFICE,Y63,VICKERS CORRIDOR,NORTHERN GENERAL HOSPITAL,HERRIES ROAD,SHEFFIELD,SOUTH YORKSHIRE,S5 7AU
TAH94,WOODHOUSE CLINIC,Y63,3 SKELTON LANE,WOODHOUSE,,SHEFFIELD,SOUTH YORKSHIRE,S13 7LY
TAH95,WOODLAND VIEW NURSING HOME,Y63,1 LIGHTWOOD LANE,,,SHEFFIELD,SOUTH YORKSHIRE,S8 8BG
TAH96,WOODSEATS MEDICAL CENTRE,Y63,2-4 COBNAR ROAD,,,SHEFFIELD,SOUTH YORKSHIRE,S8 8QB
TAH97,WOOLLEY WOOD SCHOOL,Y63,OAKS FOLD ROAD,,,SHEFFIELD,SOUTH YORKSHIRE,S5 0TG
TAH98,WYBOURN SCHOOL,Y63,MANOR OAKS ROAD,,,SHEFFIELD,SOUTH YORKSHIRE,S2 5ED
TAH99,FOX HILL,Y63,167-169 FOX HILL ROAD,,,SHEFFIELD,SOUTH YORKSHIRE,S6 1HF
TAHCC,THE LONGLEY CENTRE,Y63,NORWOOD GRANGE DRIVE,,,SHEFFIELD,SOUTH YORKSHIRE,S5 7JT
TAHCG,THE YEWS,Y63,WORRALL ROAD,WORRALL,,SHEFFIELD,SOUTH YORKSHIRE,S35 0AU
TAHCH,1A STOCKARTH LANE,Y63,OUGHTIBRIDGE,,,SHEFFIELD,SOUTH YORKSHIRE,S35 0HT
TAHCJ,ARGYLL HOUSE,Y63,WILLIAMSON ROAD,,,SHEFFIELD,SOUTH YORKSHIRE,S11 9AR
TAHCK,COALBROOK HOUSE,Y63,461A RETFORD ROAD,,,SHEFFIELD,SOUTH YORKSHIRE,S13 9WB
TAHCN,BEIGHTON HOSPITAL,Y63,SEVENAIRS ROAD,BEIGHTON,,SHEFFIELD,SOUTH YORKSHIRE,S20 1NZ
TAHCP,BARNSLEY ROAD,Y63,574 BARNSLEY ROAD,,,SHEFFIELD,SOUTH YORKSHIRE,S5 6UA
TAHCQ,CARVER STREET,Y63,38 CARVER STREET,,,SHEFFIELD,SOUTH YORKSHIRE,S1 4FS
TAHDR,BRUNSWICK HOUSE,Y63,299 GLOSSOP ROAD,,,SHEFFIELD,SOUTH YORKSHIRE,S10 2HL
TAHDT,SIDNEY STREET CENTRE,Y63,44 SIDNEY STREET,,,SHEFFIELD,SOUTH YORKSHIRE,S1 4RH
TAHDW,DARNALL PRIMARY CARE CENTRE,Y63,290 MAIN ROAD,,,SHEFFIELD,SOUTH YORKSHIRE,S9 4QH
TAHEA,LOVE STREET,Y63,33 LOVE STREET,,,SHEFFIELD,SOUTH YORKSHIRE,S3 8NW
TAHEC,INTENSIVE SUPPORT SERVICE,Y63,FIRSHILL RISE,,,SHEFFIELD,SOUTH YORKSHIRE,S4 7BW
TAHFC,MICHAEL CARLISLE CENTRE,Y63,75 OSBORNE ROAD,,,SHEFFIELD,SOUTH YORKSHIRE,S11 9BF
TAHFY,EAST GLADE CENTRE,Y63,1 EAST GLADE CRESCENT,,,SHEFFIELD,SOUTH YORKSHIRE,S12 4QN
TAHGR,IVY LODGE CLINIC,Y63,254 RUTLAND ROAD,,,SHEFFIELD,SOUTH YORKSHIRE,S3 9PR
TAHHH,WHEATA PLACE CLINIC,Y63,570 WORDSWORTH AVENUE,,,SHEFFIELD,SOUTH YORKSHIRE,S5 9JH
TAHJF,ST GEORGE'S COMMUNITY BASE,Y63,ST. GEORGES HOSPITAL,WINTER STREET,,SHEFFIELD,SOUTH YORKSHIRE,S3 7ND
TAHXD,RUTLAND ROAD,Y63,297 RUTLAND ROAD,,,SHEFFIELD,SOUTH YORKSHIRE,S3 9PZ
TAHXF,WARMINSTER ROAD,Y63,WARMINSTER HOSTEL,136 WARMINSTER ROAD,,SHEFFIELD,SOUTH YORKSHIRE,S8 8PQ
TAHXK,FULWOOD HOUSE (HQ),Y63,OLD FULWOOD ROAD,,,SHEFFIELD,SOUTH YORKSHIRE,S10 3TH
TAHXL,WARDSEND ROAD,Y63,45 WARDSEND ROAD NORTH,,,SHEFFIELD,SOUTH YORKSHIRE,S6 1LX
TAHXM,FOREST CLOSE,Y63,1-5 FOREST CLOSE,OUGHTIBRIDGE,,SHEFFIELD,SOUTH YORKSHIRE,S35 0JW
TAHXN,FOREST LODGE,Y63,1-5 FOREST CLOSE,OUGHTIBRIDGE,,SHEFFIELD,SOUTH YORKSHIRE,S35 0JW
TAHXP,GRENOSIDE GRANGE,Y63,SALT BOX LANE,GRENOSIDE,,SHEFFIELD,SOUTH YORKSHIRE,S35 8QS
TAHXQ,LIMBRICK HEALTH CENTRE,Y63,LIMBRICK ROAD,,,SHEFFIELD,SOUTH YORKSHIRE,S6 2PE
TAHXR,NORTHLANDS COMMUNITY HEALTH CENTRE,Y63,SOUTHEY HILL,,,SHEFFIELD,SOUTH YORKSHIRE,S5 8BE
TAHYA,CASTLE MARKET BUILDING,Y63,CASTLE MARKET,,,SHEFFIELD,SOUTH YORKSHIRE,S1 2AF
TAHYC,CITY ROAD DAY SERVICE,Y63,535 CITY ROAD,,,SHEFFIELD,SOUTH YORKSHIRE,S2 1GF
TAHYD,CLINICAL PSYCHOLOGY,Y63,NORTHERN GENERAL HOSPITAL,HERRIES ROAD,,SHEFFIELD,SOUTH YORKSHIRE,S5 7AU
TAHYE,EDMUND ROAD,Y63,7 EDMUND ROAD,,,SHEFFIELD,SOUTH YORKSHIRE,S2 4EA
TAHYF,HANOVER MEDICAL CENTRE,Y63,100 WILLIAM STREET,,,SHEFFIELD,SOUTH YORKSHIRE,S10 2EB
TAHYG,HOWARD ROAD,Y63,178 HOWARD ROAD,,,SHEFFIELD,SOUTH YORKSHIRE,S6 3RX
TAHYH,LIGHTWOOD HOUSE,Y63,LIGHTWOOD LANE,,,SHEFFIELD,SOUTH YORKSHIRE,S8 8BG
TAHYK,LYTTON ROAD,Y63,50-52 LYTTON ROAD,,,SHEFFIELD,SOUTH YORKSHIRE,S5 8AX
TAHYL,MONCRIEFFE DAY SERVICE,Y63,9 MONCRIEFFE ROAD,,,SHEFFIELD,SOUTH YORKSHIRE,S7 1HQ
TAHYM,NORFOLK HOUSE,Y63,4 NORFOLK STREET,,,SHEFFIELD,SOUTH YORKSHIRE,S1 2JB
TAHYN,PITSMOOR DAY CENTRE,Y63,259 PITSMOOR ROAD,,,SHEFFIELD,SOUTH YORKSHIRE,S3 9AQ
TAHYP,PSYCHIATRIC OUT PATIENTS,Y63,NORTHERN GENERAL HOSPITAL,HERRIES ROAD,,SHEFFIELD,SOUTH YORKSHIRE,S5 7AU
TAHYQ,SHEPCOTE TRADING CENTRE,Y63,SHEPCOTE LANE,,,SHEFFIELD,SOUTH YORKSHIRE,S9 1US
TAHYR,WAINWRIGHT CRESCENT,Y63,48 WAINWRIGHT CRESCENT,,,SHEFFIELD,SOUTH YORKSHIRE,S13 8EN
TAHYT,MIDDLEWOOD ROAD,Y63,228/228A MIDDLEWOOD ROAD,,,SHEFFIELD,SOUTH YORKSHIRE,S6 1TE
TAHYV,RIVERMEAD UNIT,Y63,NORTHERN GENERAL HOSPITAL,HERRIES ROAD,,SHEFFIELD,SOUTH YORKSHIRE,S5 7AU
TAHYW,FITZWILLIAM STREET,Y63,143-145 FITZWILLIAM STREET,,,SHEFFIELD,SOUTH YORKSHIRE,S1 4JP
TAHYX,PRESIDENT PARK,Y63,PRESIDENT WAY,,,SHEFFIELD,SOUTH YORKSHIRE,S4 7UR
TAHYY,PSYCHIATRIC OUTPATIENTS NETHER EDGE,Y63,PSYCHIATRIC OUTPATIENTS DEPARTMENT,LYNDHURST ROAD,,SHEFFIELD,SOUTH YORKSHIRE,S11 9BJ
TAJ,BLACK COUNTRY HEALTHCARE NHS FOUNDATION TRUST,Y60,DELTA POINT,GREETS GREEN ROAD,,WEST BROMWICH,,B70 9PL
TAJ03,PCL - BIRMINGHAM ROAD,Y60,6 HIGH STREET,,,WEST BROMWICH,WEST MIDLANDS,B70 6JX
TAJ05,EDWARD STREET DAY HOSPITAL,Y60,EDWARD STREET,,,WEST BROMWICH,WEST MIDLANDS,B70 8NL
TAJ07,EDWARD STREET HOSPITAL,Y60,EDWARD STREET,,,WEST BROMWICH,WEST MIDLANDS,B70 8NL
TAJ10,ROWLEY REGIS HOSPITAL,Y60,MOOR LANE,,,ROWLEY REGIS,WEST MIDLANDS,B65 8DA
TAJ11,HEATH LANE HOSPITAL,Y60,HEATH LANE,,,WEST BROMWICH,WEST MIDLANDS,B71 2BG
TAJ17,1/2 ST MICHAELS COURT (ANCHOR PROJECT),Y60,VICTORIA STREET,,,WEST BROMWICH,WEST MIDLANDS,B70 8ET
TAJ20,HALLAM STREET HOSPITAL,Y60,HALLAM STREET,,,WEST BROMWICH,WEST MIDLANDS,B71 4NH
TAJ22,NEPTUNE HEALTH PARK,Y60,SEDGLEY ROAD WEST,,,TIPTON,WEST MIDLANDS,DY4 8LT
TAJ25,VICTORIA HEALTH CENTRE,Y60,5 SUFFRAGE STREET,,,SMETHWICK,WEST MIDLANDS,B66 3PZ
TAJ41,STAFF SUPPORT SERVICE (CONTACT),Y60,1ST FLOOR,323 HIGH STREET,,WEST BROMWICH,WEST MIDLANDS,B70 8LU
TAJ43,SANDWELL DISTRICT GENERAL HOSPITAL,Y60,LYNDON,,,WEST BROMWICH,WEST MIDLANDS,B71 4HJ
TAJ44,WHITEHEATH CLINIC,Y60,BADSEY ROAD,,,OLDBURY,WEST MIDLANDS,B69 1ER
TAJ45,OLDBURY HEALTH CENTRE,Y60,ALBERT STREET,,,WEST BROMWICH,WEST MIDLANDS,B70 7SH
TAJ46,CITY HOSPITAL,Y60,DUDLEY ROAD,,,BIRMINGHAM,WEST MIDLANDS,B18 7QH
TAJ50,TREDGOLD HOUSE,Y60,HEATH LANE HOSPITAL,HEATH LANE,,WEST BROMWICH,WEST MIDLANDS,B71 2BG
TAJ51,CAMHS,Y60,48 LODGE ROAD,,,WEST BROMWICH,WEST MIDLANDS,B70 8NY
TAJ52,PENN HOSPITAL,Y60,PENN ROAD,,,WOLVERHAMPTON,WEST MIDLANDS,WV4 5HN
TAJ53,POND LANE,Y60,44 POND LANE,,,WOLVERHAMPTON,WEST MIDLANDS,WV2 1HG
TAJ54,RIDGE HILL HOSPITAL,Y60,BRIERLEY HILL ROAD,,,STOURBRIDGE,WEST MIDLANDS,DY8 5ST
TAJ55,DAISY BANK RESIDENTIAL,Y60,DAISYBANK,,,WALSALL,WEST MIDLANDS,WS5 3DY
TAJ57,CARERS TEAM,Y60,BRISTNALL HALL ROAD,,,OLDBURY,WEST MIDLANDS,B68 9TX
TAJ58,QUAYSIDE HOUSE,Y60,ROUNDS GREEN ROAD,,,OLDBURY,WEST MIDLANDS,B69 2DG
TAJ59,BRIERLEY HILL HEALTH AND SOCIAL CARE CENTRE,Y60,VENTURE WAY,,,BRIERLEY HILL,WEST MIDLANDS,DY5 1RU
TAJ60,CENTRAL CLINIC,Y60,HALL STREET,,,DUDLEY,WEST MIDLANDS,DY2 7BX
TAJ61,COSELEY FAMILY CENTRE,Y60,COSELEY HEALTH & FAMILY CENTRE,BAYER STREET,,BILSTON,WEST MIDLANDS,WV14 9BS
TAJ62,CROSS STREET HEALTH CENTRE,Y60,CROSS STREET,,,DUDLEY,WEST MIDLANDS,DY1 1RN
TAJ63,THE GREENS HEALTH CENTRE,Y60,100 MAPLE GREEN,,,DUDLEY,WEST MIDLANDS,DY1 3QZ
TAJ64,HALESOWEN HEALTH CENTRE,Y60,14 BIRMINGHAM STREET,,,HALESOWEN,WEST MIDLANDS,B63 3HN
TAJ65,ST JAMES MEDICAL PRACTICE,Y60,MALTHOUSE DRIVE,,,DUDLEY,WEST MIDLANDS,DY1 2BY
TAJ66,KINGSWINFORD HEALTH CENTRE,Y60,STANDHILLS ROAD,,,KINGSWINFORD,WEST MIDLANDS,DY6 8DN
TAJ67,LADIES WALK HEALTH CENTRE,Y60,LADIES WALK,SEDGLEY,,DUDLEY,WEST MIDLANDS,DY3 3UA
TAJ68,LOWER GORNAL HEALTH CENTRE,Y60,BULL STREET,GORNAL WOOD,,DUDLEY,WEST MIDLANDS,DY3 2NQ
TAJ70,NETHERTON HEALTH CENTRE,Y60,HALESOWEN ROAD,,,DUDLEY,WEST MIDLANDS,DY2 9PU
TAJ71,RUSSELLS HALL HOSPITAL,Y60,PENSNETT ROAD,,,DUDLEY,WEST MIDLANDS,DY1 2HQ
TAJ72,STOURBRIDGE HEALTH AND SOCIAL CARE CENTRE,Y60,JOHN CORBETT DRIVE,,,STOURBRIDGE,WEST MIDLANDS,DY8 4JB
TAJ73,SUNFLOWER CENTRE,Y60,JOHN CORBETT DRIVE,AMBLECOTE,,STOURBRIDGE,WEST MIDLANDS,DY8 4HZ
TAJ74,VALLEY PARK,Y60,CROMER GARDENS,WHITMORE REANS,,WOLVERHAMPTON,WEST MIDLANDS,WV6 0UA
TAJ75,WHITMORE REANS HEALTH CENTRE,Y60,LOWE STREET,,,WOLVERHAMPTON,WEST MIDLANDS,WV6 0QL
TAJ76,WEST PARK HOSPITAL,Y60,PARK ROAD,,,WOLVERHAMPTON,WEST MIDLANDS,WV1 4PW
TAJ77,BLAKENHALL RESOURCE CENTRE,Y60,HAGGAR STREET,,,WOLVERHAMPTON,WEST MIDLANDS,WV2 3ET
TAJ78,THE BROOKLANDS,Y60,BROOKLANDS PARADE,,,WOLVERHAMPTON,WEST MIDLANDS,WV1 2ND
TAJ79,GEM CENTRE,Y60,BENTLEY BRIDGE BUSINESS PARK,NEACHELLS LANE,WEDNESFIELD,WOLVERHAMPTON,WEST MIDLANDS,WV11 3PG
TAJ80,STEPS TO HEALTH,Y60,LOW HILL COMMUNITY HEALTH CENTRE,SHOWELL CIRCUS,,WOLVERHAMPTON,WEST MIDLANDS,WV10 9TH
TAJ81,NEW CROSS HOSPITAL,Y60,WEDNESFIELD ROAD,,,WOLVERHAMPTON,WEST MIDLANDS,WV10 0QP
TAJ82,BLOXWICH HOSPITAL,Y60,REEVES STREET,,,WALSALL,,WS3 2JJ
TAJ83,DOROTHY PATTISON HOSPITAL,Y60,ALUMWELL CLOSE,,,WALSALL,,WS2 9XH
TAJ84,ANCHOR MEADOW,Y60,ALDRIDGE,,,WALSALL,,WS9 8AJ
TAJ86,BLAKENALL VILLAGE CENTRE,Y60,79 THAMES ROAD,,,WALSALL,,WS3 1LZ
TAJ87,BROADWAY NORTH CENTRE,Y60,BROADWAY NORTH,,,WALSALL,,WS1 2QA
TAJ88,KINGSHILL DAY CENTRE,Y60,SCHOOL STREET,,,WEDNESBURY,,WS10 9JB
TAJ89,MOSSLEY DAY CENTRE,Y60,SNEYD LANE,,,WALSALL,,WS3 2LW
TAJ90,WOODSIDE DAY CENTRE,Y60,HIGHGATE ROAD,,,DUDLEY,WEST MIDLANDS,DY2 0SN
TAJ91,TRAFALGAR HOUSE,Y60,47-49 KING STREET,,,DUDLEY,,DY2 8PS
TAJ92,BUSHEY FIELDS HOSPITAL,Y60,BUSHEY FIELDS ROAD,,,DUDLEY,,DY1 2LZ
TAJ93,THE ELMS HEALTH CENTRE,Y60,SLADE ROAD,,,HALESOWEN,,B63 2UR
TAJ94,THE POPLARS CENTRE,Y60,LITTLE COTTAGE STREET,,,BRIERLEY HILL,,DY5 1RG
TAJ95,HALESVIEW,Y60,HIGHFIELD LANE,,,HALESOWEN,,B63 4SG
TAJ96,HILL HOUSE,Y60,HIGH STREET,AMBLECOTE,,STOURBRIDGE,,DY8 4DG
TAJ97,HOLLY HALL CLINIC,Y60,174 STOURBRIDGE ROAD,,,DUDLEY,,DY1 2ER
TAJ98,CANALSIDE,Y60,ABBOTTS STREET,,,WALSALL,,WS3 3BW
TAJ99,OLDBURY CUSTODY BLOCK,Y60,BROMFORD ROAD,,,WEST BROMWICH,,B70 7JD
TAJAA,ADULT TEAM A,Y60,HALLAM STREET HOSPITAL,HALLAM STREET,,WEST BROMWICH,WEST MIDLANDS,B71 4NH
TAJAC,ADULT TEAM C,Y60,HALLAM STREET HOSPITAL,HALLAM STREET,,WEST BROMWICH,WEST MIDLANDS,B71 4NH
TAJAD,ADULT TEAM D,Y60,HALLAM STREET HOSPITAL,HALLAM STREET,,WEST BROMWICH,WEST MIDLANDS,B71 4NH
TAJAE,ADULT TEAM E,Y60,HALLAM STREET HOSPITAL,HALLAM STREET,,WEST BROMWICH,WEST MIDLANDS,B71 4NH
TAJAF,ADULT TEAM F,Y60,HALLAM STREET HOSPITAL,HALLAM STREET,,WEST BROMWICH,WEST MIDLANDS,B71 4NH
TAJAG,ADULT TEAM G,Y60,HALLAM STREET HOSPITAL,HALLAM STREET,,WEST BROMWICH,WEST MIDLANDS,B71 4NH
TAJAH,ASSERTIVE OUTREACH TEAM,Y60,THE COTTAGE,SIMPSON STREET,,OLDBURY,WEST MIDLANDS,B69 4AL
TAJAJ,CRISIS RESOLUTION TEAM,Y60,CHURCHVALE RESOURCE CENTRE,LOWRY CLOSE,,SMETHWICK,WEST MIDLANDS,B67 7QT
TAJAK,ANCHOR PROJECT TEAM,Y60,1/2 ST. MICHAELS COURT,VICTORIA STREET,,WEST BROMWICH,WEST MIDLANDS,B70 8ET
TAJAM,EARLY INTERVENTION TEAM,Y60,CHURCHVALE RESOURCE CENTRE,LOWRY CLOSE,,SMETHWICK,WEST MIDLANDS,B67 7QT
TAJCA,CAMHS TEAM A,Y60,CHURCHILL HOUSE,60 HIGH STREET,,WEST BROMWICH,WEST MIDLANDS,B70 6JT
TAJCC,CAMHS TEAM C,Y60,CHURCHILL HOUSE,60 HIGH STREET,,WEST BROMWICH,WEST MIDLANDS,B70 6JT
TAJCD,CAMHS TEAM D,Y60,CHURCHILL HOUSE,60 HIGH STREET,,WEST BROMWICH,WEST MIDLANDS,B70 6JT
TAJD3,HOME TREATMENT NMP2,Y60,PENN HOSPITAL,PENN ROAD,,WOLVERHAMPTON,WEST MIDLANDS,WV4 5HN
TAJD4,HOME TREATMENT NMP3,Y60,PENN HOSPITAL,PENN ROAD,,WOLVERHAMPTON,WEST MIDLANDS,WV4 5HN
TAJD5,HOME TREATMENT NMP4,Y60,PENN HOSPITAL,PENN ROAD,,WOLVERHAMPTON,WEST MIDLANDS,WV4 5HN
TAJEA,OLDER ADULT TEAM A,Y60,EDWARD STREET HOSPITAL,EDWARD STREET,,WEST BROMWICH,WEST MIDLANDS,B70 8NL
TAJEC,OLDER ADULT TEAM C,Y60,EDWARD STREET HOSPITAL,EDWARD STREET,,WEST BROMWICH,WEST MIDLANDS,B70 8NL
TAJED,OLDER ADULT TEAM D,Y60,EDWARD STREET HOSPITAL,EDWARD STREET,,WEST BROMWICH,WEST MIDLANDS,B70 8NL
TAJEE,OLDER ADULT TEAM E,Y60,EDWARD STREET HOSPITAL,EDWARD STREET,,WEST BROMWICH,WEST MIDLANDS,B70 8NL
TAJEF,OLDER ADULT TEAM F,Y60,EDWARD STREET HOSPITAL,EDWARD STREET,,WEST BROMWICH,WEST MIDLANDS,B70 8NL
TAJEG,OLDER ADULT TEAM G,Y60,EDWARD STREET HOSPITAL,EDWARD STREET,,WEST BROMWICH,WEST MIDLANDS,B70 8NL
TAJHL,HEALTH LANE EMERGENCY,Y60,DELTA HOUSE,GREETS GREEN ROAD,,WEST BROMWICH,,B70 9PL
TAJHQ,BLACK COUNTRY HEALTHCARE NHS FOUNDATION TRUST HQ,Y60,DELTA POINT,GREETS GREEN ROAD,,WEST BROMWICH,WEST MIDLANDS,B70 9PL
TAJJA,KIDDERMINSTER POLICE STATION,Y60,26 CHURCH STREET,,,KIDDERMINSTER,,DY10 2AR
TAJLA,LD TEAM A,Y60,HEATH LANE HOSPITAL,HEATH LANE,,WEST BROMWICH,WEST MIDLANDS,B71 2BG
TAJLC,LD TEAM C,Y60,HEATH LANE HOSPITAL,HEATH LANE,,WEST BROMWICH,WEST MIDLANDS,B71 2BG
TAJLD,LD TEAM D,Y60,HEATH LANE HOSPITAL,HEATH LANE,,WEST BROMWICH,WEST MIDLANDS,B71 2BG
TAJLE,LD TEAM E,Y60,HEATH LANE HOSPITAL,HEATH LANE,,WEST BROMWICH,WEST MIDLANDS,B71 2BG
TAJM3,COMMUNITY NMP1,Y60,PENN HOSPITAL,PENN ROAD,,WOLVERHAMPTON,WEST MIDLANDS,WV4 5HN
TAJM4,WELL BEING NMP1,Y60,PENN HOSPITAL,PENN ROAD,,WOLVERHAMPTON,WEST MIDLANDS,WV4 5HN
TAJM5,WELL BEING NMP2,Y60,PENN HOSPITAL,PENN ROAD,,WOLVERHAMPTON,WEST MIDLANDS,WV4 5HN
TAJM6,COMMUNITY NMP2,Y60,PENN HOSPITAL,PENN ROAD,,WOLVERHAMPTON,WEST MIDLANDS,WV4 5HN
TAJM7,COMMUNITY NMP3,Y60,PENN HOSPITAL,PENN ROAD,,WOLVERHAMPTON,WEST MIDLANDS,WV4 5HN
TAJM8,COMMUNITY NMP4,Y60,PENN HOSPITAL,PENN ROAD,,WOLVERHAMPTON,WEST MIDLANDS,WV4 5HN
TAJM9,EI WOLVERHAMPTON NMP2,Y60,44 POND LANE,,,WOLVERHAMPTON,WEST MIDLANDS,WV2 1HL
TAJMA,EATING DISORDERS TEAM A,Y60,DELTA HOUSE,GREETS GREEN ROAD,,WEST BROMWICH,WEST MIDLANDS,B70 9PL
TAJNA,EARLY INTERVENTION NMP1,Y60,1-2 ST. MICHAELS COURT,VICTORIA STREET,,WEST BROMWICH,WEST MIDLANDS,B70 8ET
TAJNC,CRISIS TEAM NMP1,Y60,HALLAM ST HOSPITAL,HALLAM ST,,WEST BROMWICH,WEST MIDLANDS,B71 4NH
TAJND,PRIMARY CARE LT NMP1,Y60,OLDBURY H C,ALBERT STREET,,OLDBURY,WEST MIDLANDS,B69 4DE
TAJNE,EARLY INTERVENTION NMP2,Y60,1-2 ST. MICHAELS COURT,VICTORIA STREET,,WEST BROMWICH,WEST MIDLANDS,B70 8ET
TAJNF,CRISIS TEAM NMP2,Y60,HALLAM ST HOSPITAL,HALLAM ST,,WEST BROMWICH,WEST MIDLANDS,B71 4NH
TAJNG,PRIMARY CARE LT NMP2,Y60,WHITEHEATH MED CENTRE,BADSEY ROAD,,OLDBURY,WEST MIDLANDS,B69 1ER
TAJNH,CRISIS TEAM NMP3,Y60,HALLAM ST HOSPITAL,HALLAM ST,,WEST BROMWICH,WEST MIDLANDS,B71 4NH
TAJNJ,ADHD CLINIC NMP1,Y60,DELTA POINT,GREETS GREEN ROAD,,WEST BROMWICH,,B70 9PL
TAJNK,ADHD CLINIC NMP2,Y60,DELTA POINT,GREETS GREEN ROAD,,WEST BROMWICH,,B70 9PL
TAJW1,WALSALL LD TEAM 1,Y60,ORCHARD HILLS HOUSE,FALLOWFIELD RD,,WALSALL,,WS5 3DY
TAJW2,WALSALL LD TEAM 2,Y60,ORCHARD HILLS HOUSE,FALLOWFIELD RD,,WALSALL,,WS5 3DY
TAJW3,WALSALL LD TEAM 3,Y60,ORCHARD HILLS HOUSE,FALLOWFIELD RD,,WALSALL,,WS5 3DY
